OBJECT_NAME,OBJECT_ID,EPOCH,MEAN_MOTION,ECCENTRICITY,INCLINATION,RA_OF_ASC_NODE,ARG_OF_PERICENTER,MEAN_ANOMALY,EPHEMERIS_TYPE,CLASSIFICATION_TYPE,NORAD_CAT_ID,ELEMENT_SET_NO,REV_AT_EPOCH,BSTAR,MEAN_MOTION_DOT,MEAN_MOTION_DDOT
STARLINK-37930,2026-143V,2026-07-08T22:00:01.999584,15.62120758,.00012917,97.2852,233.8791,77.1583,56.4087,0,U,69668,999,384,-.83119407E-2,-.67029E-2,0
STARLINK-37945,2026-143W,2026-07-08T22:00:01.999584,15.64096753,.00023026,97.2843,233.9108,81.9498,122.5332,0,U,69669,999,385,-.29784243E-1,-.2461943E-1,0
STARLINK-37948,2026-143X,2026-07-08T22:00:01.999584,15.49156970,.00009461,97.2860,233.8273,90.4986,279.7886,0,U,69670,999,385,.94401987E-3,.51531E-3,0
STARLINK-37949,2026-143Y,2026-07-08T22:00:01.999584,15.57213627,.00020471,97.2851,233.8756,33.1689,92.5291,0,U,69671,999,385,-.3963278E-1,-.2504275E-1,0
STARLINK-37946,2026-143Z,2026-07-08T22:00:01.999584,15.60057478,.00020645,97.2857,233.9049,66.4297,117.6498,0,U,69672,999,385,-.33670491E-1,-.2387227E-1,0
TJS-26A,2026-144A,2026-07-07T19:23:23.106912,1.00267330,.00034059,6.9612,323.2261,346.6689,14.2705,0,U,69674,999,14,0,-.335E-5,0
CZ-7A R/B,2026-144B,2026-07-08T20:00:26.858016,2.52159049,.71502737,19.4627,317.9957,191.2975,134.1931,0,U,69675,999,40,.61165243E-3,.486513E-2,-.655507E-6
2026-132G,2026-132G,2026-07-08T10:26:01.194720,15.07822118,.00227243,97.6584,252.9897,215.5682,144.4033,0,U,69676,999,397,.42280853E-3,.6448E-4,0
STARLINK-38005,2026-145A,2026-07-08T12:09:05.223744,15.75237853,.00015064,97.2854,36.0120,95.8160,264.3277,0,U,69677,999,212,.13737839E-2,.210341E-2,0
STARLINK-38009,2026-145B,2026-07-08T21:15:25.253280,15.75293726,.000166,97.2875,36.4152,105.8581,254.2867,0,U,69678,999,218,.11679326E-2,.178566E-2,0
STARLINK-37998,2026-145C,2026-07-08T12:02:56.031360,15.73342590,.00137237,97.2857,36.0185,67.8847,292.3873,0,U,69679,999,212,-.30467267E-1,-.3603823E-1,0
STARLINK-37994,2026-145D,2026-07-08T21:13:50.120832,15.72270749,.00217417,97.2829,36.4157,135.3636,224.9383,0,U,69680,999,218,-.42794967E-1,-.4780152E-1,0
STARLINK-37992,2026-145E,2026-07-08T18:09:55.224288,15.75252265,.00011561,97.2865,36.2836,60.7289,299.4092,0,U,69681,999,216,.86681323E-3,.131523E-2,0
STARLINK-37997,2026-145F,2026-07-08T12:02:53.850624,15.76020702,.00066201,97.2854,36.0187,55.3838,304.8051,0,U,69682,999,212,.17610402E-2,.281577E-2,0
STARLINK-37990,2026-145G,2026-07-08T22:43:50.856096,15.75324389,.0001753,97.2869,36.4841,51.4921,308.6502,0,U,69683,999,219,.13782886E-2,.211862E-2,0
STARLINK-37951,2026-145H,2026-07-08T13:33:57.274272,15.75249233,.00004008,97.2860,36.0853,332.6431,27.4813,0,U,69684,999,213,.40322521E-3,.60595E-3,0
STARLINK-37957,2026-145J,2026-07-08T22:41:13.105248,15.75474850,.00006296,97.2871,36.4872,79.3386,280.7950,0,U,69685,999,219,.12941368E-2,.199936E-2,0
STARLINK-37968,2026-145K,2026-07-08T19:29:42.710496,15.75321161,.00013045,97.2858,36.3621,119.9019,240.2376,0,U,69686,999,217,.11906515E-2,.182337E-2,0
STARLINK-37977,2026-145L,2026-07-08T19:28:41.613600,15.75285726,.00015196,97.2855,36.3635,135.7748,224.3639,0,U,69687,999,217,.99753004E-3,.151963E-2,0
STARLINK-37908,2026-145M,2026-07-08T22:28:30.525024,15.75488433,.00009316,97.2858,36.4997,79.0382,281.0988,0,U,69688,999,219,.12673921E-2,.19582E-2,0
STARLINK-37979,2026-145N,2026-07-08T22:28:01.640640,15.75422038,.00022019,97.2859,36.5000,76.4600,283.6911,0,U,69689,999,219,.9985255E-3,.153042E-2,0
STARLINK-37940,2026-145P,2026-07-08T22:26:31.625664,15.75403145,.00018208,97.2843,36.5018,121.7855,238.3588,0,U,69690,999,219,.11584894E-2,.17795E-2,0
STARLINK-37961,2026-145Q,2026-07-08T20:50:31.288416,15.75236966,.00008082,97.2852,36.4391,2.8429,357.2840,0,U,69691,999,218,.10228362E-2,.155557E-2,0
STARLINK-37787,2026-145R,2026-07-08T13:10:04.575648,15.75257345,.00012843,97.2862,36.1085,94.3271,265.8141,0,U,69692,999,213,.12517056E-2,.191369E-2,0
STARLINK-37962,2026-145S,2026-07-08T22:00:01.999584,15.75233986,.00015081,97.2856,36.5003,101.4072,194.3021,0,U,69693,999,342,-.12339099E-2,-.18069E-2,0
STARLINK-37953,2026-145T,2026-07-08T13:11:36.066336,15.75249439,.0001227,97.2864,36.1069,107.5921,252.5478,0,U,69694,999,213,.1264256E-2,.193267E-2,0
STARLINK-37926,2026-145U,2026-07-08T13:10:35.051520,15.75258054,.0001332,97.2860,36.1084,111.7938,248.3470,0,U,69695,999,213,.13599098E-2,.208347E-2,0
STARLINK-37959,2026-145V,2026-07-08T13:09:03.530592,15.75249457,.00013038,97.2846,36.1098,115.1894,244.9506,0,U,69696,999,213,.11268847E-2,.171817E-2,0
STARLINK-37976,2026-145W,2026-07-08T20:42:23.493024,15.75247936,.0000761,97.2848,36.4467,39.6638,320.4683,0,U,69697,999,218,.13745997E-2,.210563E-2,0
STARLINK-37912,2026-145X,2026-07-08T13:03:28.255392,15.75282750,.0001012,97.2861,36.1151,89.9622,270.1759,0,U,69698,999,213,.11242354E-2,.171656E-2,0
