STARLINK-37930          
1 69668U 26143V   26189.91668981 -.00670290  00000+0 -83119-2 0  9994
2 69668  97.2852 233.8791 0001291  77.1583  56.4087 15.62120758  3849
STARLINK-37945          
1 69669U 26143W   26189.91668981 -.02461943  00000+0 -29784-1 0  9997
2 69669  97.2843 233.9108 0002302  81.9498 122.5332 15.64096753  3853
STARLINK-37948          
1 69670U 26143X   26189.91668981  .00051531  00000+0  94402-3 0  9994
2 69670  97.2860 233.8273 0000946  90.4986 279.7886 15.49156970  3855
STARLINK-37949          
1 69671U 26143Y   26189.91668981 -.02504275  00000+0 -39633-1 0  9990
2 69671  97.2851 233.8756 0002047  33.1689  92.5291 15.57213627  3853
STARLINK-37946          
1 69672U 26143Z   26189.91668981 -.02387227  00000+0 -33670-1 0  9992
2 69672  97.2857 233.9049 0002064  66.4297 117.6498 15.60057478  3851
TJS-26A                 
1 69674U 26144A   26188.80790633 -.00000335  00000+0  00000+0 0  9990
2 69674   6.9612 323.2261 0003405 346.6689  14.2705  1.00267330   147
CZ-7A R/B               
1 69675U 26144B   26189.83364419  .00486513 -65551-6  61165-3 0  9992
2 69675  19.4627 317.9957 7150273 191.2975 134.1931  2.52159049   407
2026-132G               
1 69676U 26132G   26189.43473605  .00006448  00000+0  42281-3 0  9997
2 69676  97.6584 252.9897 0022724 215.5682 144.4033 15.07822118  3976
STARLINK-38005          
1 69677U 26145A   26189.50631046  .00210341  00000+0  13738-2 0  9998
2 69677  97.2854  36.0120 0001506  95.8160 264.3277 15.75237853  2127
STARLINK-38009          
1 69678U 26145B   26189.88570895  .00178566  00000+0  11679-2 0  9998
2 69678  97.2875  36.4152 0001660 105.8581 254.2867 15.75293726  2180
STARLINK-37998          
1 69679U 26145C   26189.50203740 -.03603823  00000+0 -30467-1 0  9999
2 69679  97.2857  36.0185 0013723  67.8847 292.3873 15.73342590  2124
STARLINK-37994          
1 69680U 26145D   26189.88460788 -.04780152  00000+0 -42795-1 0  9998
2 69680  97.2829  36.4157 0021741 135.3636 224.9383 15.72270749  2182
STARLINK-37992          
1 69681U 26145E   26189.75688917  .00131523  00000+0  86681-3 0  9991
2 69681  97.2865  36.2836 0001156  60.7289 299.4092 15.75252265  2166
STARLINK-37997          
1 69682U 26145F   26189.50201216  .00281577  00000+0  17610-2 0  9998
2 69682  97.2854  36.0187 0006620  55.3838 304.8051 15.76020702  2125
STARLINK-37990          
1 69683U 26145G   26189.94711639  .00211862  00000+0  13783-2 0  9999
2 69683  97.2869  36.4841 0001753  51.4921 308.6502 15.75324389  2192
STARLINK-37951          
1 69684U 26145H   26189.56524623  .00060595  00000+0  40323-3 0  9999
2 69684  97.2860  36.0853 0000400 332.6431  27.4813 15.75249233  2130
STARLINK-37957          
1 69685U 26145J   26189.94529057  .00199936  00000+0  12941-2 0  9994
2 69685  97.2871  36.4872 0000629  79.3386 280.7950 15.75474850  2192
STARLINK-37968          
1 69686U 26145K   26189.81229989  .00182337  00000+0  11907-2 0  9990
2 69686  97.2858  36.3621 0001304 119.9019 240.2376 15.75321161  2171
STARLINK-37977          
1 69687U 26145L   26189.81159275  .00151963  00000+0  99753-3 0  9998
2 69687  97.2855  36.3635 0001519 135.7748 224.3639 15.75285726  2178
STARLINK-37908          
1 69688U 26145M   26189.93646441  .00195820  00000+0  12674-2 0  9994
2 69688  97.2858  36.4997 0000931  79.0382 281.0988 15.75488433  2194
STARLINK-37979          
1 69689U 26145N   26189.93613010  .00153042  00000+0  99853-3 0  9996
2 69689  97.2859  36.5000 0002201  76.4600 283.6911 15.75422038  2191
STARLINK-37940          
1 69690U 26145P   26189.93508826  .00177950  00000+0  11585-2 0  9995
2 69690  97.2843  36.5018 0001820 121.7855 238.3588 15.75403145  2192
STARLINK-37961          
1 69691U 26145Q   26189.86841769  .00155557  00000+0  10228-2 0  9996
2 69691  97.2852  36.4391 0000808   2.8429 357.2840 15.75236966  2183
STARLINK-37787          
1 69692U 26145R   26189.54866407  .00191369  00000+0  12517-2 0  9992
2 69692  97.2862  36.1085 0001284  94.3271 265.8141 15.75257345  2139
STARLINK-37962          
1 69693U 26145S   26189.91668981 -.00180690  00000+0 -12339-2 0  9990
2 69693  97.2856  36.5003 0001508 101.4072 194.3021 15.75233986  3426
STARLINK-37953          
1 69694U 26145T   26189.54972299  .00193267  00000+0  12643-2 0  9990
2 69694  97.2864  36.1069 0001227 107.5921 252.5478 15.75249439  2132
STARLINK-37926          
1 69695U 26145U   26189.54901680  .00208347  00000+0  13599-2 0  9994
2 69695  97.2860  36.1084 0001332 111.7938 248.3470 15.75258054  2136
STARLINK-37959          
1 69696U 26145V   26189.54795753  .00171817  00000+0  11269-2 0  9990
2 69696  97.2846  36.1098 0001303 115.1894 244.9506 15.75249457  2132
STARLINK-37976          
1 69697U 26145W   26189.86277191  .00210563  00000+0  13746-2 0  9991
2 69697  97.2848  36.4467 0000761  39.6638 320.4683 15.75247936  2182
STARLINK-37912          
1 69698U 26145X   26189.54407703  .00171656  00000+0  11242-2 0  9999
2 69698  97.2861  36.1151 0001012  89.9622 270.1759 15.75282750  2139
